#dV2023  1  7 10  0  0.00000000    1682       CTS   FIT  GFZ
## 2243 554400.00000000    30.00000000 59951 0.4166666666667
+    1   L65  0  0  0  0  0  0  0  0  0  0  0  0  0  0  0  0
+          0  0  0  0  0  0  0  0  0  0  0  0  0  0  0  0  0
+          0  0  0  0  0  0  0  0  0  0  0  0  0  0  0  0  0
+          0  0  0  0  0  0  0  0  0  0  0  0  0  0  0  0  0
+          0  0  0  0  0  0  0  0  0  0  0  0  0  0  0  0  0
++         0  0  0  0  0  0  0  0  0  0  0  0  0  0  0  0  0
++         0  0  0  0  0  0  0  0  0  0  0  0  0  0  0  0  0
++         0  0  0  0  0  0  0  0  0  0  0  0  0  0  0  0  0
++         0  0  0  0  0  0  0  0  0  0  0  0  0  0  0  0  0
++         0  0  0  0  0  0  0  0  0  0  0  0  0  0  0  0  0
%c L  cc GPS ccc cccc cccc cccc cccc ccccc ccccc ccccc ccccc
%c cc cc ccc ccc cccc cccc cccc cccc ccccc ccccc ccccc ccccc
%f  0.0000000  0.000000000  0.00000000000  0.000000000000000
%f  0.0000000  0.000000000  0.00000000000  0.000000000000000
%i    0    0    0    0      0      0      0      0         0
%i    0    0    0    0      0      0      0      0         0
/* CCCCCCCCCCCCCCCCCCCCCCCCCCCCCCCCCCCCCCCCCCCCCCCCCCCCCCCCCCCCCCCCCCCCCCCCCCCCC
/* C                             GFZ RSO-ORBIT                                 C
/* C DOI: https://doi.org/10.5880/GFZ_ORBIT/RSO/L65_G_v02                      C
/* C                                                                           C
/* C DORIS        RMS: not applicable                                          C
/* C GNSS-E Code  RMS: not applicable                                          C
/* C GNSS-E Phase RMS: not applicable                                          C
/* C GNSS-G Code  RMS:  48.962 [cm]   Obs.acc.:     14490 Obs.eli.:      1116  C
/* C GNSS-G Phase RMS:   4.201 [mm]   Obs.acc.:     14490 Obs.eli.:      1116  C
/* C SLR          RMS:   9.093 [cm]   Obs.acc.:        97 Obs.eli.:         0  C
/* C                                                                           C
/* CCCCCCCCCCCCCCCCCCCCCCCCCCCCCCCCCCCCCCCCCCCCCCCCCCCCCCCCCCCCCCCCCCCCCCCCCCCCC
*  2023  1  7 13 49 30.00000000
PL65   3297.237868   5122.760377   3171.657652  23315.908069
VL65 -16587.609339 -31174.843419  67569.327080 999999.999999
*  2023  1  7 13 50  0.00000000
PL65   3245.458670   5026.541763   3372.567850  23316.374548
VL65 -17929.954101 -32963.973584  66358.448011 999999.999999
*  2023  1  7 13 50 30.00000000
PL65   3189.670388   4925.019044   3569.734901  23316.840879
VL65 -19260.054361 -34710.596621  65074.132832 999999.999999
*  2023  1  7 13 51  0.00000000
PL65   3129.912250   4818.322567   3762.940672  23317.307503
VL65 -20576.248492 -36412.838005  63717.845786 999999.999999
*  2023  1  7 13 51 30.00000000
PL65   3066.228454   4706.588212   3951.971547  23317.774139
VL65 -21876.886590 -38068.885517  62291.133343 999999.999999
*  2023  1  7 13 52  0.00000000
PL65   2998.668124   4589.957200   4136.618669  23318.240811
VL65 -23160.331724 -39676.989991  60795.620441 999999.999999
*  2023  1  7 13 52 30.00000000
PL65   2927.285278   4468.575901   4316.678169  23318.707549
VL65 -24424.963001 -41235.468411  59233.008875 999999.999999
*  2023  1  7 13 53  0.00000000
PL65   2852.138764   4342.595632   4491.951393  23319.174223
VL65 -25669.177362 -42742.706501  57605.070143 999999.999999
*  2023  1  7 13 53 30.00000000
PL65   2773.292217   4212.172453   4662.245098  23319.640890
VL65 -26891.388533 -44197.155346  55913.641555 999999.999999
*  2023  1  7 13 54  0.00000000
PL65   2690.814005   4077.466975   4827.371656  23320.107608
VL65 -28090.028638 -45597.331431  54160.628982 999999.999999
*  2023  1  7 13 54 30.00000000
PL65   2604.777163   3938.644153   4987.149258  23320.574347
VL65 -29263.551780 -46941.820876  52348.005081 999999.999999
*  2023  1  7 13 55  0.00000000
PL65   2515.259334   3795.873081   5141.402108  23321.041165
VL65 -30410.435405 -48229.280913  50477.804934 999999.999999
*  2023  1  7 13 55 30.00000000
PL65   2422.342690   3649.326771   5289.960605  23321.507880
VL65 -31529.180952 -49458.440466  48552.123334 999999.999999
*  2023  1  7 13 56  0.00000000
PL65   2326.113860   3499.181941   5432.661517  23321.974588
VL65 -32618.315475 -50628.100183  46573.112443 999999.999999
*  2023  1  7 13 56 30.00000000
PL65   2226.663854   3345.618800   5569.348157  23322.441303
VL65 -33676.393947 -51737.131899  44542.980913 999999.999999
*  2023  1  7 13 57  0.00000000
PL65   2124.087968   3188.820835   5699.870545  23322.907910
VL65 -34702.002283 -52784.480823  42463.993165 999999.999999
*  2023  1  7 13 57 30.00000000
PL65   2018.485692   3028.974579   5824.085574  23323.374412
VL65 -35693.759515 -53769.168273  40338.465442 999999.999999
*  2023  1  7 13 58  0.00000000
PL65   1909.960610   2866.269391   5941.857160  23323.840608
VL65 -36650.318955 -54690.291838  38168.762195 999999.999999
*  2023  1  7 13 58 30.00000000
PL65   1798.620288   2700.897220   6053.056381  23324.306875
VL65 -37570.370167 -55547.026007  35957.293595 999999.999999
*  2023  1  7 13 59  0.00000000
PL65   1684.576171   2533.052375   6157.561607  23324.773200
VL65 -38452.640460 -56338.622938  33706.511703 999999.999999
*  2023  1  7 13 59 30.00000000
PL65   1567.943462   2362.931293   6255.258627  23325.239385
VL65 -39295.895605 -57064.412140  31418.907600 999999.999999
*  2023  1  7 14  0  0.00000000
PL65   1448.841008   2190.732305   6346.040758  23325.705902
VL65 -40098.941388 -57723.800795  29097.009418 999999.999999
*  2023  1  7 14  0 30.00000000
PL65   1327.391177   2016.655406   6429.808951  23326.172535
VL65 -40860.625615 -58316.274435  26743.379418 999999.999999
*  2023  1  7 14  1  0.00000000
PL65   1203.719726   1840.902012   6506.471894 999999.999999
VL65 -41579.839670 -58841.397047  24360.610357 999999.999999
*  2023  1  7 14  1 30.00000000
PL65   1077.955675   1663.674736   6575.946093  23327.106309
VL65 -42255.519298 -59298.810137  21951.322122 999999.999999
*  2023  1  7 14  2  0.00000000
PL65    950.231166   1485.177146   6638.155952  23327.572873
VL65 -42886.645107 -59688.231740  19518.159996 999999.999999
*  2023  1  7 14  2 30.00000000
PL65    820.681332   1305.613544   6693.033848  23328.040246
VL65 -43472.244061 -60009.456880  17063.793244 999999.999999
*  2023  1  7 14  3  0.00000000
PL65    689.444154   1125.188731   6740.520196  23328.506911
VL65 -44011.391576 -60262.358068  14590.911738 999999.999999
*  2023  1  7 14  3 30.00000000
PL65    556.660311    944.107774   6780.563510  23328.973199
VL65 -44503.212547 -60446.883812  12102.222266 999999.999999
*  2023  1  7 14  4  0.00000000
PL65    422.473033    762.575783   6813.120444  23329.439902
VL65 -44946.881799 -60563.057342   9600.447764 999999.999999
*  2023  1  7 14  4 30.00000000
PL65    287.027947    580.797685   6838.155849  23329.906368
VL65 -45341.625768 -60610.978589   7088.326244 999999.999999
*  2023  1  7 14  5  0.00000000
PL65    150.472925    398.977988   6855.642803  23330.372486
VL65 -45686.724260 -60590.825230   4568.606278 999999.999999
*  2023  1  7 14  5 30.00000000
PL65     12.957915    217.320556   6865.562643  23330.838967
VL65 -45981.511611 -60502.851401   2044.043135 999999.999999
*  2023  1  7 14  6  0.00000000
PL65   -125.365221     36.028373   6867.904977  23331.305435
VL65 -46225.377592 -60347.386870   -482.604760 999999.999999
*  2023  1  7 14  6 30.00000000
PL65   -264.342873   -144.696676   6862.667688  23331.771941
VL65 -46417.767267 -60124.835177  -3008.579118 999999.999999
*  2023  1  7 14  7  0.00000000
PL65   -403.819847   -324.654024   6849.856934  23332.238694
VL65 -46558.181423 -59835.672055  -5531.122512 999999.999999
*  2023  1  7 14  7 30.00000000
PL65   -543.639542   -503.644643   6829.487140  23332.705282
VL65 -46646.178612 -59480.446140  -8047.479725 999999.999999
*  2023  1  7 14  8  0.00000000
PL65   -683.644118   -681.471258   6801.580990  23333.171567
VL65 -46681.376828 -59059.779593 -10554.902114 999999.999999
*  2023  1  7 14  8 30.00000000
PL65   -823.674680   -857.938571   6766.169400  23333.637995
VL65 -46663.453518 -58574.366519 -13050.652363 999999.999999
*  2023  1  7 14  9  0.00000000
PL65   -963.571452  -1032.853472   6723.291472  23334.104541
VL65 -46592.145310 -58024.970809 -15532.007125 999999.999999
*  2023  1  7 14  9 30.00000000
PL65  -1103.173961  -1206.025244   6672.994460  23334.571178
VL65 -46467.248557 -57412.424714 -17996.258928 999999.999999
*  2023  1  7 14 10  0.00000000
PL65  -1242.321210  -1377.265767   6615.333712  23335.037944
VL65 -46288.620042 -56737.627715 -20440.718372 999999.999999
*  2023  1  7 14 10 30.00000000
PL65  -1380.851865  -1546.389722   6550.372612  23335.504696
VL65 -46056.177430 -56001.545104 -22862.716637 999999.999999
*  2023  1  7 14 11  0.00000000
PL65  -1518.604437  -1713.214780   6478.182520  23335.971370
VL65 -45769.899307 -55205.206482 -25259.607470 999999.999999
*  2023  1  7 14 11 30.00000000
PL65  -1655.417463  -1877.561796   6398.842697  23336.438004
VL65 -45429.825405 -54349.705251 -27628.769143 999999.999999
*  2023  1  7 14 12  0.00000000
PL65  -1791.129693  -2039.255003   6312.440230  23336.904570
VL65 -45036.057274 -53436.197915 -29967.607133 999999.999999
*  2023  1  7 14 12 30.00000000
PL65  -1925.580274  -2198.122194   6219.069944  23337.371161
VL65 -44588.758719 -52465.902925 -32273.556544 999999.999999
*  2023  1  7 14 13  0.00000000
PL65  -2058.608940  -2353.994911   6118.834314  23337.837888
VL65 -44088.156578 -51440.099955 -34544.083705 999999.999999
*  2023  1  7 14 13 30.00000000
PL65  -2190.056200  -2506.708624   6011.843364  23338.304608
VL65 -43534.542650 -50360.129394 -36776.689605 999999.999999
*  2023  1  7 14 14  0.00000000
PL65  -2319.763538  -2656.102917   5898.214558  23338.771643
VL65 -42928.273792 -49227.390524 -38968.915114 999999.999999
*  2023  1  7 14 14 30.00000000
PL65  -2447.573606  -2802.021653   5778.072672  23339.238873
VL65 -42269.770910 -48043.338593 -41118.343710 999999.999999
EOF
